%YAML 1.1
%TAG !u! tag:unity3d.com,2011:
--- !u!114 &11400000
MonoBehaviour:
  m_ObjectHideFlags: 0
  m_CorrespondingSourceObject: {fileID: 0}
  m_PrefabInstance: {fileID: 0}
  m_PrefabAsset: {fileID: 0}
  m_GameObject: {fileID: 0}
  m_Enabled: 1
  m_EditorHideFlags: 0
  m_Script: {fileID: 11500000, guid: 3c3c350472192c149822725a54cc75ed, type: 3}
  m_Name: Europa
  m_EditorClassIdentifier: 
  mass: 4.799844e+22
  diameter: 3121600
  orbit:
    semimajorAxis: 671100000
    eccentricity: 0.009
    inclination: 0.00872664626
    lonAscNode: 3.211405824
    argPeriapsis: 0.7853981634
    trueAnomaly: 6.023780087
    meanAnomaly: 0
    anomaly: 0
    semiminorAxis: 0
    meanMotion: 0
    semiLatusRectum: 0
    timeToPeriapsis: 0
    period: 0
  argPrecessionPeriod: 1.394
  ascPrecessionPeriod: 30.202
  material: {fileID: 2100000, guid: a1fbf10d75b069041bba2d71660df35d, type: 2}
  bodiesOnOrbit: []
  type: 2
